{"type": "FeatureCollection", "features": [ {"type": "Feature", "properties": {"norad_id": 37216, "name": "COSMO-SKYMED 4", "group": "resource", "lat": 5.141034956560376, "lon": -12.284490397184898, "alt_km": 624.965291144199, "timestamp": "2025-12-11T15:53:39.198948+00:00", "meta": {"OBJECT_NAME": "COSMO-SKYMED 4", "OBJECT_ID": "2010-060A", "EPOCH": "2025-12-11T07:00:26.965728", "MEAN_MOTION": 14.8216656, "ECCENTRICITY": 0.00014183, "INCLINATION": 97.8808, "RA_OF_ASC_NODE": 166.6369, "ARG_OF_PERICENTER": 77.5185, "MEAN_ANOMALY": 282.6187, "EPHEMERIS_TYPE": 0, "CLASSIFICATION_TYPE": "U", "NORAD_CAT_ID": 37216, "ELEMENT_SET_NO": 999, "REV_AT_EPOCH": 81673, "BSTAR": 0.00012563991, "MEAN_MOTION_DOT": 9.48e-06, "MEAN_MOTION_DDOT": 0}, "tle": {"line1": "1 37216U 10060A   25345.29197877  .00000948  00000+0  12564-3 0  9996", "line2": "2 37216  97.8808 166.6369 0001418  77.5185 282.6187 14.82166560816733"}}, "geometry": {"type": "Point", "coordinates": [-12.284490397184898, 5.141034956560376]}}, {"type": "Feature", "properties": {"norad_id": 37387, "name": "RESOURCESAT-2", "group": "resource", "lat": 13.83991700448819, "lon": 47.03481305543336, "alt_km": 816.8988058200121, "timestamp": "2025-12-11T15:53:39.198959+00:00", "meta": {"OBJECT_NAME": "RESOURCESAT-2", "OBJECT_ID": "2011-015A", "EPOCH": "2025-12-11T05:41:36.360096", "MEAN_MOTION": 14.21596385, "ECCENTRICITY": 0.0006506, "INCLINATION": 98.7879, "RA_OF_ASC_NODE": 48.7958, "ARG_OF_PERICENTER": 46.5001, "MEAN_ANOMALY": 313.6716, "EPHEMERIS_TYPE": 0, "CLASSIFICATION_TYPE": "U", "NORAD_CAT_ID": 37387, "ELEMENT_SET_NO": 999, "REV_AT_EPOCH": 75947, "BSTAR": 0.00013202376, "MEAN_MOTION_DOT": 2.45e-06, "MEAN_MOTION_DDOT": 0}, "tle": {"line1": "1 37387U 11015A   25345.23722639  .00000245  00000+0  13202-3 0  9990", "line2": "2 37387  98.7879  48.7958 0006506  46.5001 313.6716 14.21596385759475"}}, "geometry": {"type": "Point", "coordinates": [47.03481305543336, 13.83991700448819]}}, {"type": "Feature", "properties": {"norad_id": 37781, "name": "HAIYANG-2A", "group": "resource", "lat": -46.8973510475273, "lon": 156.48697801914653, "alt_km": 975.7215979669372, "timestamp": "2025-12-11T15:53:39.198969+00:00", "meta": {"OBJECT_NAME": "HAIYANG-2A", "OBJECT_ID": "2011-043A", "EPOCH": "2025-12-11T06:05:09.826080", "MEAN_MOTION": 13.78836003, "ECCENTRICITY": 0.00016652, "INCLINATION": 99.3381, "RA_OF_ASC_NODE": 346.2107, "ARG_OF_PERICENTER": 84.0263, "MEAN_ANOMALY": 276.1079, "EPHEMERIS_TYPE": 0, "CLASSIFICATION_TYPE": "U", "NORAD_CAT_ID": 37781, "ELEMENT_SET_NO": 999, "REV_AT_EPOCH": 72078, "BSTAR": 0.00034621644, "MEAN_MOTION_DOT": 3.08e-06, "MEAN_MOTION_DDOT": 0}, "tle": {"line1": "1 37781U 11043A   25345.25358595  .00000308  00000+0  34622-3 0  9996", "line2": "2 37781  99.3381 346.2107 0001665  84.0263 276.1079 13.78836003720780"}}, "geometry": {"type": "Point", "coordinates": [156.48697801914653, -46.8973510475273]}}, {"type": "Feature", "properties": {"norad_id": 37791, "name": "RASAT", "group": "resource", "lat": -0.987671866724761, "lon": 75.07577438608014, "alt_km": 665.3244540573369, "timestamp": "2025-12-11T15:53:39.198979+00:00", "meta": {"OBJECT_NAME": "RASAT", "OBJECT_ID": "2011-044D", "EPOCH": "2025-12-11T06:25:21.855648", "MEAN_MOTION": 14.679064, "ECCENTRICITY": 0.00219003, "INCLINATION": 98.0648, "RA_OF_ASC_NODE": 74.547, "ARG_OF_PERICENTER": 69.3727, "MEAN_ANOMALY": 5.7469, "EPHEMERIS_TYPE": 0, "CLASSIFICATION_TYPE": "U", "NORAD_CAT_ID": 37791, "ELEMENT_SET_NO": 999, "REV_AT_EPOCH": 76561, "BSTAR": 0.00018488408, "MEAN_MOTION_DOT": 1.012e-05, "MEAN_MOTION_DDOT": 0}, "tle": {"line1": "1 37791U 11044D   25345.26761407  .00001012  00000+0  18488-3 0  9994", "line2": "2 37791  98.0648  74.5470 0021900  69.3727   5.7469 14.67906400765610"}}, "geometry": {"type": "Point", "coordinates": [75.07577438608014, -0.987671866724761]}}, {"type": "Feature", "properties": {"norad_id": 37841, "name": "SRMSAT", "group": "resource", "lat": -4.235924290462444, "lon": 102.7086641657883, "alt_km": 846.5390450104551, "timestamp": "2025-12-11T15:53:39.198989+00:00", "meta": {"OBJECT_NAME": "SRMSAT", "OBJECT_ID": "2011-058D", "EPOCH": "2025-12-10T16:20:28.552992", "MEAN_MOTION": 14.11510466, "ECCENTRICITY": 0.00117159, "INCLINATION": 19.9705, "RA_OF_ASC_NODE": 120.4116, "ARG_OF_PERICENTER": 290.6404, "MEAN_ANOMALY": 99.2293, "EPHEMERIS_TYPE": 0, "CLASSIFICATION_TYPE": "U", "NORAD_CAT_ID": 37841, "ELEMENT_SET_NO": 999, "REV_AT_EPOCH": 73115, "BSTAR": 0.00014227219, "MEAN_MOTION_DOT": 5.27e-06, "MEAN_MOTION_DDOT": 0}, "tle": {"line1": "1 37841U 11058D   25344.68088603  .00000527  00000+0  14227-3 0  9997", "line2": "2 37841  19.9705 120.4116 0011715 290.6404  99.2293 14.11510466731151"}}, "geometry": {"type": "Point", "coordinates": [102.7086641657883, -4.235924290462444]}}, {"type": "Feature", "properties": {"norad_id": 38012, "name": "PLEIADES 1A", "group": "resource", "lat": -10.711703208473734, "lon": -123.11256019272108, "alt_km": 702.5290641707006, "timestamp": "2025-12-11T15:53:39.198999+00:00", "meta": {"OBJECT_NAME": "PLEIADES 1A", "OBJECT_ID": "2011-076F", "EPOCH": "2025-12-11T07:06:53.954784", "MEAN_MOTION": 14.58558719, "ECCENTRICITY": 0.00012994, "INCLINATION": 98.182, "RA_OF_ASC_NODE": 58.0869, "ARG_OF_PERICENTER": 73.8284, "MEAN_ANOMALY": 357.2456, "EPHEMERIS_TYPE": 0, "CLASSIFICATION_TYPE": "U", "NORAD_CAT_ID": 38012, "ELEMENT_SET_NO": 999, "REV_AT_EPOCH": 74460, "BSTAR": 0.00012325805, "MEAN_MOTION_DOT": 5.27e-06, "MEAN_MOTION_DDOT": 0}, "tle": {"line1": "1 38012U 11076F   25345.29645781  .00000527  00000+0  12326-3 0  9990", "line2": "2 38012  98.1820  58.0869 0001299  73.8284 357.2456 14.58558719744609"}}, "geometry": {"type": "Point", "coordinates": [-123.11256019272108, -10.711703208473734]}}, {"type": "Feature", "properties": {"norad_id": 38038, "name": "ZIYUAN 1-02C (ZY 1-02C)", "group": "resource", "lat": 1.7523704188718987, "lon": -128.04458352432775, "alt_km": 763.7568832556062, "timestamp": "2025-12-11T15:53:39.199010+00:00", "meta": {"OBJECT_NAME": "ZIYUAN 1-02C (ZY 1-02C)", "OBJECT_ID": "2011-079A", "EPOCH": "2025-12-11T07:02:24.043776", "MEAN_MOTION": 14.38009185, "ECCENTRICITY": 0.00070833, "INCLINATION": 98.433, "RA_OF_ASC_NODE": 51.3333, "ARG_OF_PERICENTER": 142.1823, "MEAN_ANOMALY": 287.1165, "EPHEMERIS_TYPE": 0, "CLASSIFICATION_TYPE": "U", "NORAD_CAT_ID": 38038, "ELEMENT_SET_NO": 999, "REV_AT_EPOCH": 73220, "BSTAR": 0.00024204776, "MEAN_MOTION_DOT": 6.89e-06, "MEAN_MOTION_DDOT": 0}, "tle": {"line1": "1 38038U 11079A   25345.29333384  .00000689  00000+0  24205-3 0  9992", "line2": "2 38038  98.4330  51.3333 0007083 142.1823 287.1165 14.38009185732201"}}, "geometry": {"type": "Point", "coordinates": [-128.04458352432775, 1.7523704188718987]}}, {"type": "Feature", "properties": {"norad_id": 38046, "name": "ZIYUAN 3-1 (ZY 3-1)", "group": "resource", "lat": -8.369583081036565, "lon": -129.0077943569315, "alt_km": 368.7223244730867, "timestamp": "2025-12-11T15:53:39.199021+00:00", "meta": {"OBJECT_NAME": "ZIYUAN 3-1 (ZY 3-1)", "OBJECT_ID": "2012-001A", "EPOCH": "2025-12-11T07:26:14.849376", "MEAN_MOTION": 15.68313334, "ECCENTRICITY": 0.00018389, "INCLINATION": 97.1754, "RA_OF_ASC_NODE": 51.6937, "ARG_OF_PERICENTER": 358.3727, "MEAN_ANOMALY": 1.7528, "EPHEMERIS_TYPE": 0, "CLASSIFICATION_TYPE": "U", "NORAD_CAT_ID": 38046, "ELEMENT_SET_NO": 999, "REV_AT_EPOCH": 77474, "BSTAR": 0.0018603513, "MEAN_MOTION_DOT": 0.00213225, "MEAN_MOTION_DDOT": 0}, "tle": {"line1": "1 38046U 12001A   25345.30989409  .00213225  00000+0  18604-2 0  9991", "line2": "2 38046  97.1754  51.6937 0001838 358.3727   1.7528 15.68313334774741"}}, "geometry": {"type": "Point", "coordinates": [-129.0077943569315, -8.369583081036565]}}, {"type": "Feature", "properties": {"norad_id": 38338, "name": "ARIRANG-3 (KOMPSAT-3)", "group": "resource", "lat": 73.69927443512165, "lon": -89.83218736586926, "alt_km": 680.8164246109855, "timestamp": "2025-12-11T15:53:39.199031+00:00", "meta": {"OBJECT_NAME": "ARIRANG-3 (KOMPSAT-3)", "OBJECT_ID": "2012-025B", "EPOCH": "2025-12-11T07:20:01.979808", "MEAN_MOTION": 14.61713745, "ECCENTRICITY": 0.00054654, "INCLINATION": 98.332, "RA_OF_ASC_NODE": 299.8842, "ARG_OF_PERICENTER": 343.5149, "MEAN_ANOMALY": 16.5874, "EPHEMERIS_TYPE": 0, "CLASSIFICATION_TYPE": "U", "NORAD_CAT_ID": 38338, "ELEMENT_SET_NO": 999, "REV_AT_EPOCH": 72389, "BSTAR": 0.00032308265, "MEAN_MOTION_DOT": 1.561e-05, "MEAN_MOTION_DDOT": 0}, "tle": {"line1": "1 38338U 12025B   25345.30557847  .00001561  00000+0  32308-3 0  9994", "line2": "2 38338  98.3320 299.8842 0005465 343.5149  16.5874 14.61713745723892"}}, "geometry": {"type": "Point", "coordinates": [-89.83218736586926, 73.69927443512165]}}, {"type": "Feature", "properties": {"norad_id": 38709, "name": "EXACTVIEW-1 (ADS-1B)", "group": "resource", "lat": -35.709248653394525, "lon": -92.4848183951104, "alt_km": 821.0640007198253, "timestamp": "2025-12-11T15:53:39.199041+00:00", "meta": {"OBJECT_NAME": "EXACTVIEW-1 (ADS-1B)", "OBJECT_ID": "2012-039C", "EPOCH": "2025-12-11T06:27:22.828608", "MEAN_MOTION": 14.24907352, "ECCENTRICITY": 0.0010752, "INCLINATION": 98.9635, "RA_OF_ASC_NODE": 93.6282, "ARG_OF_PERICENTER": 358.4749, "MEAN_ANOMALY": 1.6395, "EPHEMERIS_TYPE": 0, "CLASSIFICATION_TYPE": "U", "NORAD_CAT_ID": 38709, "ELEMENT_SET_NO": 999, "REV_AT_EPOCH": 69594, "BSTAR": 0.00014815363, "MEAN_MOTION_DOT": 3e-06, "MEAN_MOTION_DDOT": 0}, "tle": {"line1": "1 38709U 12039C   25345.26901422  .00000300  00000+0  14815-3 0  9991", "line2": "2 38709  98.9635  93.6282 0010752 358.4749   1.6395 14.24907352695948"}}, "geometry": {"type": "Point", "coordinates": [-92.4848183951104, -35.709248653394525]}}]}